NORAD_CAT_ID,OBJECT_NAME,OBJECT_TYPE,EPOCH,MEAN_MOTION,ECCENTRICITY,INCLINATION,RA_OF_ASC_NODE,ARG_OF_PERICENTER,MEAN_ANOMALY,BSTAR,MEAN_MOTION_DOT,MEAN_MOTION_DDOT,TLE_LINE0,TLE_LINE1,TLE_LINE2,SEMIMAJOR_AXIS,PERIOD,APOGEE,PERIGEE,DECAYED
51970.0,STARLINK-3677,PAYLOAD,2022-12-21 02:59:23,15.08832214,0.0002819,53.2184,261.9508,23.798,336.3142,-3.3765e-05,-8.26e-06,0.0,0 STARLINK-3677,1 51970U 22025Q   22355.12457444 -.00000826  00000-0 -33765-4 0  9997,2 51970  53.2184 261.9508 0002819  23.7980 336.3142 15.08832214 44977,6917.904,95.438,541.719,537.819,0.0
51970.0,STARLINK-3677,PAYLOAD,2022-12-21 10:56:19,15.0882328,0.0002468,53.2194,260.4668,30.7509,329.3627,-9.3678e-05,-1.778e-05,0.0,0 STARLINK-3677,1 51970U 22025Q   22355.45578363 -.00001778  00000-0 -93678-4 0  9993,2 51970  53.2194 260.4668 0002468  30.7509 329.3627 15.08823280 45024,6917.931,95.439,541.504,538.089,0.0
51970.0,STARLINK-3677,PAYLOAD,2022-12-22 01:14:46,15.08837647,0.0002577,53.2176,257.7896,31.2025,328.9119,-8.6559e-05,-1.666e-05,0.0,0 STARLINK-3677,1 51970U 22025Q   22356.05192844 -.00001666  00000-0 -86559-4 0  9992,2 51970  53.2176 257.7896 0002577  31.2025 328.9119 15.08837647 45119,6917.888000000001,95.438,541.535,537.97,0.0
51970.0,STARLINK-3677,PAYLOAD,2022-12-22 10:47:05,15.08833518,0.0002473,53.2173,256.0076,33.4901,326.6247,-9.355e-05,-1.777e-05,0.0,0 STARLINK-3677,1 51970U 22025Q   22356.44937269 -.00001777  00000-0 -93550-4 0  9995,2 51970  53.2173 256.0076 0002473  33.4901 326.6247 15.08833518 44085,6917.9,95.438,541.476,538.054,0.0
51970.0,STARLINK-3677,PAYLOAD,2022-12-22 20:19:25,15.08827517,0.0002463,53.2163,254.2239,34.0581,326.0568,-3.855e-05,-9.02e-06,0.0,0 STARLINK-3677,1 51970U 22025Q   22356.84682023 -.00000902  00000-0 -38550-4 0  9992,2 51970  53.2163 254.2239 0002463  34.0581 326.0568 15.08827517 44144,6917.919,95.438,541.487,538.08,0.0
51970.0,STARLINK-3677,PAYLOAD,2022-12-22 21:54:48,15.08829547,0.0002458,53.2165,253.9254,33.8007,326.3141,8.2204e-06,-1.58e-06,0.0,0 STARLINK-3677,1 51970U 22025Q   22356.91305986 -.00000158  00000-0  82204-5 0  9998,2 51970  53.2165 253.9254 0002458  33.8007 326.3141 15.08829547 45240,6917.9119999999975,95.438,541.4780000000002,538.077,0.0
51970.0,STARLINK-3677,PAYLOAD,2022-12-23 10:37:53,15.08837685,0.0002461,53.2162,251.547,31.9214,328.1927,0.000288,4.298e-05,0.0,0 STARLINK-3677,1 51970U 22025Q   22357.44297940  .00004298  00000-0  28800-3 0  9995,2 51970  53.2162 251.5470 0002461  31.9214 328.1927 15.08837685 44236,6917.887,95.438,541.455,538.05,0.0
51970.0,STARLINK-3677,PAYLOAD,2022-12-23 23:20:58,15.0885001,0.0002327,53.2161,249.1676,35.1787,324.9359,0.00058126,8.977e-05,0.0,0 STARLINK-3677,1 51970U 22025Q   22357.97289607  .00008977  00000-0  58126-3 0  9996,2 51970  53.2161 249.1676 0002327  35.1787 324.9359 15.08850010 45408,6917.85,95.437,541.325,538.105,0.0
51970.0,STARLINK-3677,PAYLOAD,2022-12-24 10:28:40,15.08853807,0.0002473,53.2156,247.0863,36.1732,323.9427,0.00041713,6.359e-05,0.0,0 STARLINK-3677,1 51970U 22025Q   22358.43657465  .00006359  00000-0  41713-3 0  9995,2 51970  53.2156 247.0863 0002473  36.1732 323.9427 15.08853807 44388,6917.8380000000025,95.437,541.414,537.992,0.0
51970.0,STARLINK-3677,PAYLOAD,2022-12-24 20:00:58,15.0884574,0.0002304,53.2151,245.3027,33.5328,326.581,5.8447e-05,6.42e-06,0.0,0 STARLINK-3677,1 51970U 22025Q   22358.83401471  .00000642  00000-0  58447-4 0  9995,2 51970  53.2151 245.3027 0002304  33.5328 326.5810 15.08845740 45531,6917.863,95.437,541.322,538.134,0.0
51970.0,STARLINK-3677,PAYLOAD,2022-12-24 23:11:45,15.08845945,0.0002345,53.2151,244.7082,32.4883,327.6253,0.0001835,2.634e-05,0.0,0 STARLINK-3677,1 51970U 22025Q   22358.96649375  .00002634  00000-0  18350-3 0  9997,2 51970  53.2151 244.7082 0002345  32.4883 327.6253 15.08845945 44465,6917.861999999999,95.437,541.349,538.105,0.0
51970.0,STARLINK-3677,PAYLOAD,2022-12-25 13:30:13,15.0883699,0.0002691,53.2149,242.0321,20.4803,339.6297,0.0004543,6.949e-05,0.0,0 STARLINK-3677,1 51970U 22025Q   22359.56266008  .00006949  00000-0  45430-3 0  9994,2 51970  53.2149 242.0321 0002691  20.4803 339.6297 15.08836990 45644,6917.89,95.438,541.616,537.893,0.0
51970.0,STARLINK-3677,PAYLOAD,2022-12-25 19:51:46,15.08828145,0.0002061,53.2144,240.8435,32.2279,327.8839,0.00016221,2.294e-05,0.0,0 STARLINK-3677,1 51970U 22025Q   22359.82762378  .00002294  00000-0  16221-3 0  9999,2 51970  53.2144 240.8435 0002061  32.2279 327.8839 15.08828145 44597,6917.917,95.438,541.207,538.356,0.0
51970.0,STARLINK-3677,PAYLOAD,2022-12-26 02:13:19,15.08834698,0.0002384,53.2152,239.6525,31.1045,329.0088,0.000319,4.792e-05,0.0,0 STARLINK-3677,1 51970U 22025Q   22360.09258503  .00004792  00000-0  31900-3 0  9996,2 51970  53.2152 239.6525 0002384  31.1045 329.0088 15.08834698 45725,6917.897,95.438,541.411,538.112,0.0
51970.0,STARLINK-3677,PAYLOAD,2022-12-26 08:34:51,15.08842941,0.0002469,53.2148,238.4635,29.838,330.2753,0.00057579,8.888e-05,0.0,0 STARLINK-3677,1 51970U 22025Q   22360.35754516  .00008888  00000-0  57579-3 0  9990,2 51970  53.2148 238.4635 0002469  29.8380 330.2753 15.08842941 44675,6917.871,95.437,541.444,538.028,0.0
51970.0,STARLINK-3677,PAYLOAD,2022-12-26 16:31:47,15.08844352,0.0002403,53.2149,236.9768,33.6049,326.5095,0.00078237,0.00012187,0.0,0 STARLINK-3677,1 51970U 22025Q   22360.68874610  .00012187  00000-0  78237-3 0  9995,2 51970  53.2149 236.9768 0002403  33.6049 326.5095 15.08844352 44720,6917.8669999999975,95.437,541.394,538.07,0.0
51970.0,STARLINK-3677,PAYLOAD,2022-12-27 08:25:38,15.08845428,0.0002412,53.2154,234.0024,32.5856,327.5284,0.00039597,6.02e-05,0.0,0 STARLINK-3677,1 51970U 22025Q   22361.35114560  .00006020  00000-0  39597-3 0  9996,2 51970  53.2154 234.0024 0002412  32.5856 327.5284 15.08845428 45912,6917.864000000001,95.437,541.3969999999998,538.06,0.0
51970.0,STARLINK-3677,PAYLOAD,2022-12-27 17:57:57,15.08858784,0.0002394,53.2151,232.2181,33.4237,326.6906,0.0005809,8.974e-05,0.0,0 STARLINK-3677,1 51970U 22025Q   22361.74858024  .00008974  00000-0  58090-3 0  9998,2 51970  53.2151 232.2181 0002394  33.4237 326.6906 15.08858784 44880,6917.823,95.436,541.344,538.0319999999998,0.0
51970.0,STARLINK-3677,PAYLOAD,2022-12-28 00:19:29,15.08866185,0.0002396999999999,53.2148,231.0289,33.8288,326.2856,0.00068298,0.00010606,0.0,0 STARLINK-3677,1 51970U 22025Q   22362.01353563  .00010606  00000-0  68298-3 0  9993,2 51970  53.2148 231.0289 0002397  33.8288 326.2856 15.08866185 46016,6917.8,95.436,541.3240000000002,538.007,0.0
51970.0,STARLINK-3677,PAYLOAD,2022-12-28 17:48:43,15.08848073,0.0001965,53.2156,227.7555,31.1977,328.9132,-6.659e-06,-3.94e-06,0.0,0 STARLINK-3677,1 51970U 22025Q   22362.74217318 -.00000394  00000-0 -66590-5 0  9990,2 51970  53.2156 227.7555 0001965  31.1977 328.9132 15.08848073 46123,6917.856,95.437,541.08,538.361,0.0
51970.0,STARLINK-3677,PAYLOAD,2022-12-29 08:07:12,15.08831518,0.0002498,53.2152,225.079,37.7317,322.385,-0.00021777,-3.752e-05,0.0,0 STARLINK-3677,1 51970U 22025Q   22363.33833811 -.00003752  00000-0 -21777-3 0  9995,2 51970  53.2152 225.0790 0002498  37.7317 322.3850 15.08831518 46214,6917.906,95.438,541.499,538.043,0.0
51970.0,STARLINK-3677,PAYLOAD,2022-12-30 07:58:00,15.08834049,0.0002413,53.2136,220.6187,39.847,320.2699,0.00064519,9.993e-05,0.0,0 STARLINK-3677,1 51970U 22025Q   22364.33195049  .00009993  00000-0  64519-3 0  9992,2 51970  53.2136 220.6187 0002413  39.8470 320.2699 15.08834049 45272,6917.899,95.438,541.433,538.094,0.0
51970.0,STARLINK-3677,PAYLOAD,2022-12-30 20:41:05,15.0885101,0.0002401999999999,53.2135,218.2399,37.7513,322.3647,0.00082252,0.00012831,0.0,0 STARLINK-3677,1 51970U 22025Q   22364.86186810  .00012831  00000-0  82252-3 0  9995,2 51970  53.2135 218.2399 0002402  37.7513 322.3647 15.08851010 46445,6917.847,95.437,541.373,538.05,0.0
51970.0,STARLINK-3677,PAYLOAD,2022-12-31 07:48:47,15.08845676,0.0002435999999999,53.2142,216.1605,31.7727,328.3412,0.00043372,6.622e-05,0.0,0 STARLINK-3677,1 51970U 22025Q   22365.32554875  .00006622  00000-0  43372-3 0  9998,2 51970  53.2142 216.1605 0002436  31.7727 328.3412 15.08845676 45422,6917.863,95.437,541.413,538.043,0.0
51970.0,STARLINK-3677,PAYLOAD,2022-12-31 14:10:20,15.08838198,0.0002546,53.2148,214.9712,38.4633,321.6541,0.00017195,2.449e-05,0.0,0 STARLINK-3677,1 51970U 22025Q   22365.59051209  .00002449  00000-0  17195-3 0  9997,2 51970  53.2148 214.9712 0002546  38.4633 321.6541 15.08838198 46550,6917.886,95.438,541.512,537.99,0.0
51970.0,STARLINK-3677,PAYLOAD,2022-12-31 20:31:52,15.08838686,0.0002371,53.2147,213.7814,36.5148,323.6006,0.00019103,2.753e-05,0.0,0 STARLINK-3677,1 51970U 22025Q   22365.85547236  .00002753  00000-0  19103-3 0  9995,2 51970  53.2147 213.7814 0002371  36.5148 323.6006 15.08838686 45509,6917.884,95.438,541.39,538.109,0.0
51970.0,STARLINK-3677,PAYLOAD,2023-01-01 14:01:07,15.08843413,0.0002407,53.2156,210.5102,40.479,319.638,0.00039275,5.969e-05,0.0,0 STARLINK-3677,1 51970U 22025Q   23001.58411381  .00005969  00000-0  39275-3 0  9998,2 51970  53.2156 210.5102 0002407  40.4790 319.6380 15.08843413 45617,6917.87,95.437,541.4,538.07,0.0
51970.0,STARLINK-3677,PAYLOAD,2023-01-01 20:22:39,15.08847147,0.0002418,53.2153,209.3208,40.0915,320.0255,0.00051978,7.996e-05,0.0,0 STARLINK-3677,1 51970U 22025Q   23001.84907318  .00007996  00000-0  51978-3 0  9993,2 51970  53.2153 209.3208 0002418  40.0915 320.0255 15.08847147 45653,6917.859,95.437,541.396,538.0509999999998,0.0
51970.0,STARLINK-3677,PAYLOAD,2023-01-01 23:33:26,15.08848482,0.0002468,53.2158,208.7263,41.8415,318.2765,0.00046891,7.184e-05,0.0,0 STARLINK-3677,1 51970U 22025Q   23001.98155244  .00007184  00000-0  46891-3 0  9998,2 51970  53.2158 208.7263 0002468  41.8415 318.2765 15.08848482 46762,6917.854,95.437,541.427,538.012,0.0
